{
  "type": "FeatureCollection",
  "features": [
    {
      "type": "Feature",
      "properties": {
        "norad_id": 40115,
        "name": "WORLDVIEW-3 (WV-3)",
        "group": "resource",
        "lat": 54.12004185285414,
        "lon": -116.2276052927259,
        "alt_km": 606.5402844674463,
        "timestamp": "2025-12-06T09:34:16.575021+00:00",
        "meta_object_name": "WORLDVIEW-3 (WV-3)",
        "meta_object_id": "2014-048A",
        "meta_epoch": "2025-12-05T23:18:36.628128",
        "meta_mean_motion": 14.85485019,
        "meta_eccentricity": 0.0004274,
        "meta_inclination": 97.8624,
        "meta_ra_of_asc_node": 52.3369,
        "meta_arg_of_pericenter": 208.3783,
        "meta_mean_anomaly": 151.7199,
        "meta_ephemeris_type": 0,
        "meta_classification_type": "U",
        "meta_norad_cat_id": 40115,
        "meta_element_set_no": 999,
        "meta_rev_at_epoch": 61323,
        "meta_bstar": 0.00027125308,
        "meta_mean_motion_dot": 2.287e-05,
        "meta_mean_motion_ddot": 0,
        "tle_line1": "1 40115U 14048A   25339.97125727  .00002287  00000+0  27125-3 0  9998",
        "tle_line2": "2 40115  97.8624  52.3369 0004274 208.3783 151.7199 14.85485019613238"
      },
      "geometry": {
        "type": "Point",
        "coordinates": [
          -116.2276052927259,
          54.12004185285414
        ]
      }
    },
    {
      "type": "Feature",
      "properties": {
        "norad_id": 40118,
        "name": "GAOFEN-2",
        "group": "resource",
        "lat": 53.16690628616093,
        "lon": 28.678870556122302,
        "alt_km": 621.1652652783787,
        "timestamp": "2025-12-06T09:34:16.575031+00:00",
        "meta_object_name": "GAOFEN-2",
        "meta_object_id": "2014-049A",
        "meta_epoch": "2025-12-05T21:58:28.926912",
        "meta_mean_motion": 14.80589134,
        "meta_eccentricity": 0.00083476,
        "meta_inclination": 98.0395,
        "meta_ra_of_asc_node": 39.072,
        "meta_arg_of_pericenter": 132.612,
        "meta_mean_anomaly": 227.5797,
        "meta_ephemeris_type": 0,
        "meta_classification_type": "U",
        "meta_norad_cat_id": 40118,
        "meta_element_set_no": 999,
        "meta_rev_at_epoch": 61063,
        "meta_bstar": 0.00019087749,
        "meta_mean_motion_dot": 1.411e-05,
        "meta_mean_motion_ddot": 0,
        "tle_line1": "1 40118U 14049A   25339.91561258  .00001411  00000+0  19088-3 0  9996",
        "tle_line2": "2 40118  98.0395  39.0720 0008347 132.6120 227.5797 14.80589134610636"
      },
      "geometry": {
        "type": "Point",
        "coordinates": [
          28.678870556122302,
          53.16690628616093
        ]
      }
    },
    {
      "type": "Feature",
      "properties": {
        "norad_id": 40143,
        "name": "YAOGAN-21",
        "group": "resource",
        "lat": 61.5897947642692,
        "lon": -142.54278146359928,
        "alt_km": 485.2888504432103,
        "timestamp": "2025-12-06T09:34:16.575067+00:00",
        "meta_object_name": "YAOGAN-21",
        "meta_object_id": "2014-053A",
        "meta_epoch": "2025-12-05T22:01:27.259104",
        "meta_mean_motion": 15.23552505,
        "meta_eccentricity": 0.00101777,
        "meta_inclination": 97.1763,
        "meta_ra_of_asc_node": 23.5275,
        "meta_arg_of_pericenter": 62.6783,
        "meta_mean_anomaly": 297.549,
        "meta_ephemeris_type": 0,
        "meta_classification_type": "U",
        "meta_norad_cat_id": 40143,
        "meta_element_set_no": 999,
        "meta_rev_at_epoch": 62550,
        "meta_bstar": 0.0004395751,
        "meta_mean_motion_dot": 0.0001046,
        "meta_mean_motion_ddot": 0,
        "tle_line1": "1 40143U 14053A   25339.91767661  .00010460  00000+0  43958-3 0  9992",
        "tle_line2": "2 40143  97.1763  23.5275 0010177  62.6783 297.5490 15.23552505625506"
      },
      "geometry": {
        "type": "Point",
        "coordinates": [
          -142.54278146359928,
          61.5897947642692
        ]
      }
    },
    {
      "type": "Feature",
      "properties": {
        "norad_id": 40275,
        "name": "YAOGAN-22",
        "group": "resource",
        "lat": 14.285502842539755,
        "lon": 120.95826305702664,
        "alt_km": 1204.1504282326569,
        "timestamp": "2025-12-06T09:34:16.575079+00:00",
        "meta_object_name": "YAOGAN-22",
        "meta_object_id": "2014-063A",
        "meta_epoch": "2025-12-05T22:32:45.985632",
        "meta_mean_motion": 13.15522531,
        "meta_eccentricity": 0.00059057,
        "meta_inclination": 100.7419,
        "meta_ra_of_asc_node": 123.263,
        "meta_arg_of_pericenter": 264.693,
        "meta_mean_anomaly": 95.3507,
        "meta_ephemeris_type": 0,
        "meta_classification_type": "U",
        "meta_norad_cat_id": 40275,
        "meta_element_set_no": 999,
        "meta_rev_at_epoch": 53440,
        "meta_bstar": 5.7882741e-05,
        "meta_mean_motion_dot": -2.5e-07,
        "meta_mean_motion_ddot": 0,
        "tle_line1": "1 40275U 14063A   25339.93942113 -.00000025  00000+0  57883-4 0  9998",
        "tle_line2": "2 40275 100.7419 123.2630 0005905 264.6930  95.3507 13.15522531534401"
      },
      "geometry": {
        "type": "Point",
        "coordinates": [
          120.95826305702664,
          14.285502842539755
        ]
      }
    },
    {
      "type": "Feature",
      "properties": {
        "norad_id": 40298,
        "name": "ASNARO",
        "group": "resource",
        "lat": -78.81719041741911,
        "lon": -164.37392578720394,
        "alt_km": 517.2489642281289,
        "timestamp": "2025-12-06T09:34:16.575089+00:00",
        "meta_object_name": "ASNARO",
        "meta_object_id": "2014-070A",
        "meta_epoch": "2025-12-05T21:21:31.989312",
        "meta_mean_motion": 15.19276493,
        "meta_eccentricity": 0.00052748,
        "meta_inclination": 97.3666,
        "meta_ra_of_asc_node": 56.0055,
        "meta_arg_of_pericenter": 141.5083,
        "meta_mean_anomaly": 218.6529,
        "meta_ephemeris_type": 0,
        "meta_classification_type": "U",
        "meta_norad_cat_id": 40298,
        "meta_element_set_no": 999,
        "meta_rev_at_epoch": 61465,
        "meta_bstar": 0.00077389265,
        "meta_mean_motion_dot": 0.00016285,
        "meta_mean_motion_ddot": 0,
        "tle_line1": "1 40298U 14070A   25339.88995358  .00016285  00000+0  77389-3 0  9990",
        "tle_line2": "2 40298  97.3666  56.0055 0005274 141.5083 218.6529 15.19276493614655"
      },
      "geometry": {
        "type": "Point",
        "coordinates": [
          -164.37392578720394,
          -78.81719041741911
        ]
      }
    },
    {
      "type": "Feature",
      "properties": {
        "norad_id": 40310,
        "name": "YAOGAN-24",
        "group": "resource",
        "lat": 40.65100849471629,
        "lon": -61.49768426259039,
        "alt_km": 628.7046266471707,
        "timestamp": "2025-12-06T09:34:16.575100+00:00",
        "meta_object_name": "YAOGAN-24",
        "meta_object_id": "2014-072A",
        "meta_epoch": "2025-12-05T23:11:01.761504",
        "meta_mean_motion": 14.7615465,
        "meta_eccentricity": 0.00144208,
        "meta_inclination": 98.1223,
        "meta_ra_of_asc_node": 111.0236,
        "meta_arg_of_pericenter": 158.9604,
        "meta_mean_anomaly": 201.2201,
        "meta_ephemeris_type": 0,
        "meta_classification_type": "U",
        "meta_norad_cat_id": 40310,
        "meta_element_set_no": 999,
        "meta_rev_at_epoch": 59521,
        "meta_bstar": 0.00029419217,
        "meta_mean_motion_dot": 1.983e-05,
        "meta_mean_motion_ddot": 0,
        "tle_line1": "1 40310U 14072A   25339.96599261  .00001983  00000+0  29419-3 0  9999",
        "tle_line2": "2 40310  98.1223 111.0236 0014420 158.9604 201.2201 14.76154650595212"
      },
      "geometry": {
        "type": "Point",
        "coordinates": [
          -61.49768426259039,
          40.65100849471629
        ]
      }
    },
    {
      "type": "Feature",
      "properties": {
        "norad_id": 40336,
        "name": "CBERS 4",
        "group": "resource",
        "lat": 80.7071987952921,
        "lon": -24.95698222028512,
        "alt_km": 765.0508571878754,
        "timestamp": "2025-12-06T09:34:16.575110+00:00",
        "meta_object_name": "CBERS 4",
        "meta_object_id": "2014-079A",
        "meta_epoch": "2025-12-05T23:08:08.472480",
        "meta_mean_motion": 14.35513775,
        "meta_eccentricity": 0.00014914,
        "meta_inclination": 98.332,
        "meta_ra_of_asc_node": 38.2124,
        "meta_arg_of_pericenter": 121.8112,
        "meta_mean_anomaly": 238.3219,
        "meta_ephemeris_type": 0,
        "meta_classification_type": "U",
        "meta_norad_cat_id": 40336,
        "meta_element_set_no": 999,
        "meta_rev_at_epoch": 57623,
        "meta_bstar": 0.0001246293,
        "meta_mean_motion_dot": 3.16e-06,
        "meta_mean_motion_ddot": 0,
        "tle_line1": "1 40336U 14079A   25339.96398695  .00000316  00000+0  12463-3 0  9992",
        "tle_line2": "2 40336  98.3320  38.2124 0001491 121.8112 238.3219 14.35513775576236"
      },
      "geometry": {
        "type": "Point",
        "coordinates": [
          -24.95698222028512,
          80.7071987952921
        ]
      }
    }
  ]
}